YAOGAN-43 01D           
1 60461U 24148D   26068.43560480  .00010676  00000+0  37766-3 0  9999
2 60461  35.0010  61.7102 0002556 326.2473  33.8080 15.28369377 87008
STARLINK-34907          
1 65213U 25176R   26068.51817607  .00032734  00000+0  11127-2 0  9997
2 65213  53.1578 153.5626 0000962  85.5613 274.5498 15.30192945 33094
